[{"OBJECT_NAME":"EXPRESS 80","OBJECT_ID":"2020-053B","EPOCH":"2026-03-04T07:51:30.143808","MEAN_MOTION":1.00272174,"ECCENTRICITY":0.00017391,"INCLINATION":0.0263,"RA_OF_ASC_NODE":237.8623,"ARG_OF_PERICENTER":44.0475,"MEAN_ANOMALY":78.0379,"EPHEMERIS_TYPE":0,"CLASSIFICATION_TYPE":"U","NORAD_CAT_ID":45986,"ELEMENT_SET_NO":999,"REV_AT_EPOCH":2059,"BSTAR":0,"MEAN_MOTION_DOT":-1.48e-6,"MEAN_MOTION_DDOT":0},{"OBJECT_NAME":"BSAT-4B","OBJECT_ID":"2020-056A","EPOCH":"2026-03-05T03:49:38.571744","MEAN_MOTION":1.00272467,"ECCENTRICITY":0.00015908,"INCLINATION":0.0334,"RA_OF_ASC_NODE":195.5117,"ARG_OF_PERICENTER":246.4706,"MEAN_ANOMALY":248.1549,"EPHEMERIS_TYPE":0,"CLASSIFICATION_TYPE":"U","NORAD_CAT_ID":46112,"ELEMENT_SET_NO":999,"REV_AT_EPOCH":2034,"BSTAR":0,"MEAN_MOTION_DOT":-3.59e-6,"MEAN_MOTION_DDOT":0},{"OBJECT_NAME":"MEV-2","OBJECT_ID":"2020-056B","EPOCH":"2026-03-05T05:26:07.046880","MEAN_MOTION":1.00272386,"ECCENTRICITY":0.00013091,"INCLINATION":0.018,"RA_OF_ASC_NODE":121.3321,"ARG_OF_PERICENTER":262.4473,"MEAN_ANOMALY":219.6948,"EPHEMERIS_TYPE":0,"CLASSIFICATION_TYPE":"U","NORAD_CAT_ID":46113,"ELEMENT_SET_NO":999,"REV_AT_EPOCH":7945,"BSTAR":0,"MEAN_MOTION_DOT":-2.0e-7,"MEAN_MOTION_DDOT":0},{"OBJECT_NAME":"GALAXY 30 (G-30)","OBJECT_ID":"2020-056C","EPOCH":"2026-03-05T06:33:23.095872","MEAN_MOTION":1.00271117,"ECCENTRICITY":0.00020654,"INCLINATION":0.0228,"RA_OF_ASC_NODE":160.9213,"ARG_OF_PERICENTER":191.705,"MEAN_ANOMALY":143.7425,"EPHEMERIS_TYPE":0,"CLASSIFICATION_TYPE":"U","NORAD_CAT_ID":46114,"ELEMENT_SET_NO":999,"REV_AT_EPOCH":2025,"BSTAR":0,"MEAN_MOTION_DOT":0,"MEAN_MOTION_DDOT":0},{"OBJECT_NAME":"GAOFEN-13 01","OBJECT_ID":"2020-071A","EPOCH":"2026-03-05T06:00:11.280384","MEAN_MOTION":1.0027453,"ECCENTRICITY":0.00429923,"INCLINATION":0.2525,"RA_OF_ASC_NODE":85.7382,"ARG_OF_PERICENTER":119.9445,"MEAN_ANOMALY":165.5879,"EPHEMERIS_TYPE":0,"CLASSIFICATION_TYPE":"U","NORAD_CAT_ID":46610,"ELEMENT_SET_NO":999,"REV_AT_EPOCH":1987,"BSTAR":0,"MEAN_MOTION_DOT":-3.71e-6,"MEAN_MOTION_DDOT":0},{"OBJECT_NAME":"TIANTONG-1 2","OBJECT_ID":"2020-082A","EPOCH":"2026-03-05T06:14:38.604192","MEAN_MOTION":1.00271192,"ECCENTRICITY":0.00035045,"INCLINATION":0.949,"RA_OF_ASC_NODE":314.9417,"ARG_OF_PERICENTER":29.3861,"MEAN_ANOMALY":37.296,"EPHEMERIS_TYPE":0,"CLASSIFICATION_TYPE":"U","NORAD_CAT_ID":46916,"ELEMENT_SET_NO":999,"REV_AT_EPOCH":1961,"BSTAR":0,"MEAN_MOTION_DOT":-3.65e-6,"MEAN_MOTION_DDOT":0},{"OBJECT_NAME":"LUCAS (JDRS-1)","OBJECT_ID":"2020-089A","EPOCH":"2026-03-05T04:13:26.616000","MEAN_MOTION":1.00273143,"ECCENTRICITY":0.00027863,"INCLINATION":0.0594,"RA_OF_ASC_NODE":275.512,"ARG_OF_PERICENTER":65.8218,"MEAN_ANOMALY":335.7026,"EPHEMERIS_TYPE":0,"CLASSIFICATION_TYPE":"U","NORAD_CAT_ID":47202,"ELEMENT_SET_NO":999,"REV_AT_EPOCH":1937,"BSTAR":0,"MEAN_MOTION_DOT":-2.44e-6,"MEAN_MOTION_DDOT":0},{"OBJECT_NAME":"SXM-7","OBJECT_ID":"2020-096A","EPOCH":"2026-03-04T07:12:38.742624","MEAN_MOTION":1.00271682,"ECCENTRICITY":0.00042567,"INCLINATION":0.0208,"RA_OF_ASC_NODE":120.1047,"ARG_OF_PERICENTER":6.4566,"MEAN_ANOMALY":58.4603,"EPHEMERIS_TYPE":0,"CLASSIFICATION_TYPE":"U","NORAD_CAT_ID":47240,"ELEMENT_SET_NO":999,"REV_AT_EPOCH":639,"BSTAR":0,"MEAN_MOTION_DOT":-2.17e-6,"MEAN_MOTION_DDOT":0},{"OBJECT_NAME":"CMS-01","OBJECT_ID":"2020-099A","EPOCH":"2026-03-04T21:54:22.064832","MEAN_MOTION":1.00272304,"ECCENTRICITY":0.0006352,"INCLINATION":0.0198,"RA_OF_ASC_NODE":129.1759,"ARG_OF_PERICENTER":160.5456,"MEAN_ANOMALY":284.5093,"EPHEMERIS_TYPE":0,"CLASSIFICATION_TYPE":"U","NORAD_CAT_ID":47256,"ELEMENT_SET_NO":999,"REV_AT_EPOCH":1915,"BSTAR":0,"MEAN_MOTION_DOT":-1.74e-6,"MEAN_MOTION_DDOT":0},{"OBJECT_NAME":"TURKSAT 5A","OBJECT_ID":"2021-001A","EPOCH":"2026-03-04T08:46:38.648640","MEAN_MOTION":1.00271506,"ECCENTRICITY":1.043e-5,"INCLINATION":0.0228,"RA_OF_ASC_NODE":100.1896,"ARG_OF_PERICENTER":19.3439,"MEAN_ANOMALY":205.1498,"EPHEMERIS_TYPE":0,"CLASSIFICATION_TYPE":"U","NORAD_CAT_ID":47306,"ELEMENT_SET_NO":999,"REV_AT_EPOCH":1891,"BSTAR":0,"MEAN_MOTION_DOT":1.42e-6,"MEAN_MOTION_DDOT":0},{"OBJECT_NAME":"TIANTONG-1 3","OBJECT_ID":"2021-003A","EPOCH":"2026-03-05T04:13:38.615232","MEAN_MOTION":1.00272732,"ECCENTRICITY":0.00033497,"INCLINATION":1.8524,"RA_OF_ASC_NODE":333.1278,"ARG_OF_PERICENTER":5.4431,"MEAN_ANOMALY":329.2074,"EPHEMERIS_TYPE":0,"CLASSIFICATION_TYPE":"U","NORAD_CAT_ID":47321,"ELEMENT_SET_NO":999,"REV_AT_EPOCH":1891,"BSTAR":0,"MEAN_MOTION_DOT":-1.63e-6,"MEAN_MOTION_DDOT":0},{"OBJECT_NAME":"TJS-6","OBJECT_ID":"2021-010A","EPOCH":"2026-03-05T06:17:17.141280","MEAN_MOTION":1.00271027,"ECCENTRICITY":0.00033383,"INCLINATION":0.3322,"RA_OF_ASC_NODE":90.8233,"ARG_OF_PERICENTER":284.6874,"MEAN_ANOMALY":60.2819,"EPHEMERIS_TYPE":0,"CLASSIFICATION_TYPE":"U","NORAD_CAT_ID":47613,"ELEMENT_SET_NO":999,"REV_AT_EPOCH":1876,"BSTAR":0,"MEAN_MOTION_DOT":3.4e-7,"MEAN_MOTION_DDOT":0},{"OBJECT_NAME":"SHIYAN-9 (SY-9)","OBJECT_ID":"2021-019A","EPOCH":"2026-02-13T08:49:37.634880","MEAN_MOTION":1.00262375,"ECCENTRICITY":0.0016854,"INCLINATION":16.7978,"RA_OF_ASC_NODE":304.0404,"ARG_OF_PERICENTER":23.4452,"MEAN_ANOMALY":94.4865,"EPHEMERIS_TYPE":0,"CLASSIFICATION_TYPE":"U","NORAD_CAT_ID":47851,"ELEMENT_SET_NO":999,"REV_AT_EPOCH":2289,"BSTAR":0,"MEAN_MOTION_DOT":-2.21e-6,"MEAN_MOTION_DDOT":0},{"OBJECT_NAME":"SBIRS GEO-5 (USA 315)","OBJECT_ID":"2021-042A","EPOCH":"2026-03-05T04:05:38.894784","MEAN_MOTION":1.0027148,"ECCENTRICITY":0.0001487,"INCLINATION":5.2359,"RA_OF_ASC_NODE":328.3437,"ARG_OF_PERICENTER":3.8234,"MEAN_ANOMALY":345.9269,"EPHEMERIS_TYPE":0,"CLASSIFICATION_TYPE":"U","NORAD_CAT_ID":48618,"ELEMENT_SET_NO":999,"REV_AT_EPOCH":1772,"BSTAR":0,"MEAN_MOTION_DOT":-2.77e-6,"MEAN_MOTION_DDOT":0},{"OBJECT_NAME":"FENGYUN 4B","OBJECT_ID":"2021-047A","EPOCH":"2026-03-04T18:12:38.729376","MEAN_MOTION":1.00276646,"ECCENTRICITY":0.00079792,"INCLINATION":0.1928,"RA_OF_ASC_NODE":76.9826,"ARG_OF_PERICENTER":295.2034,"MEAN_ANOMALY":168.0514,"EPHEMERIS_TYPE":0,"CLASSIFICATION_TYPE":"U","NORAD_CAT_ID":48808,"ELEMENT_SET_NO":999,"REV_AT_EPOCH":1752,"BSTAR":0,"MEAN_MOTION_DOT":-3.4e-6,"MEAN_MOTION_DDOT":0},{"OBJECT_NAME":"SXM-8","OBJECT_ID":"2021-049A","EPOCH":"2026-03-04T07:12:38.742624","MEAN_MOTION":1.00273408,"ECCENTRICITY":0.00043702,"INCLINATION":0.0269,"RA_OF_ASC_NODE":58.6722,"ARG_OF_PERICENTER":346.3267,"MEAN_ANOMALY":140.054,"EPHEMERIS_TYPE":0,"CLASSIFICATION_TYPE":"U","NORAD_CAT_ID":48838,"ELEMENT_SET_NO":999,"REV_AT_EPOCH":1754,"BSTAR":0,"MEAN_MOTION_DOT":-2.17e-6,"MEAN_MOTION_DDOT":0},{"OBJECT_NAME":"TIANLIAN 1-05","OBJECT_ID":"2021-063A","EPOCH":"2026-03-05T05:31:06.568032","MEAN_MOTION":1.00272004,"ECCENTRICITY":0.00045475,"INCLINATION":1.3255,"RA_OF_ASC_NODE":81.5719,"ARG_OF_PERICENTER":228.8411,"MEAN_ANOMALY":312.0744,"EPHEMERIS_TYPE":0,"CLASSIFICATION_TYPE":"U","NORAD_CAT_ID":49011,"ELEMENT_SET_NO":999,"REV_AT_EPOCH":1703,"BSTAR":0,"MEAN_MOTION_DOT":1.0e-6,"MEAN_MOTION_DDOT":0}]
