EXPRESS 80              
1 45986U 20053B   26063.32743222 -.00000148  00000+0  00000+0 0  9996
2 45986   0.0263 237.8623 0001739  44.0475  78.0379  1.00272174 20594
BSAT-4B                 
1 46112U 20056A   26064.15947421 -.00000359  00000+0  00000+0 0  9994
2 46112   0.0334 195.5117 0001590 246.4706 248.1549  1.00272467 20340
MEV-2                   
1 46113U 20056B   26064.22647045 -.00000020  00000+0  00000+0 0  9997
2 46113   0.0180 121.3321 0001309 262.4473 219.6948  1.00272386 79453
GALAXY 30 (G-30)        
1 46114U 20056C   26064.27318398  .00000000  00000+0  00000+0 0  9996
2 46114   0.0228 160.9213 0002065 191.7050 143.7425  1.00271117 20253
GAOFEN-13 01            
1 46610U 20071A   26064.25013056 -.00000371  00000+0  00000+0 0  9997
2 46610   0.2525  85.7382 0042992 119.9445 165.5879  1.00274530 19873
TIANTONG-1 2            
1 46916U 20082A   26064.26016903 -.00000365  00000+0  00000+0 0  9996
2 46916   0.9490 314.9417 0003504  29.3861  37.2960  1.00271192 19617
LUCAS (JDRS-1)          
1 47202U 20089A   26064.17600250 -.00000244  00000+0  00000+0 0  9992
2 47202   0.0594 275.5120 0002786  65.8218 335.7026  1.00273143 19377
SXM-7                   
1 47240U 20096A   26063.30044841 -.00000217  00000+0  00000+0 0  9994
2 47240   0.0208 120.1047 0004256   6.4566  58.4603  1.00271682  6399
CMS-01                  
1 47256U 20099A   26063.91275538 -.00000174  00000+0  00000+0 0  9992
2 47256   0.0198 129.1759 0006352 160.5456 284.5093  1.00272304 19157
TURKSAT 5A              
1 47306U 21001A   26063.36572510  .00000142  00000+0  00000+0 0  9995
2 47306   0.0228 100.1896 0000104  19.3439 205.1498  1.00271506 18913
TIANTONG-1 3            
1 47321U 21003A   26064.17614138 -.00000163  00000+0  00000+0 0  9991
2 47321   1.8524 333.1278 0003349   5.4431 329.2074  1.00272732 18912
TJS-6                   
1 47613U 21010A   26064.26200395  .00000034  00000+0  00000+0 0  9995
2 47613   0.3322  90.8233 0003338 284.6874  60.2819  1.00271027 18762
SHIYAN-9 (SY-9)         
1 47851U 21019A   26044.36779670 -.00000221  00000+0  00000+0 0  9993
2 47851  16.7978 304.0404 0016854  23.4452  94.4865  1.00262375 22897
SBIRS GEO-5 (USA 315)   
1 48618U 21042A   26064.17058906 -.00000277  00000+0  00000+0 0  9995
2 48618   5.2359 328.3437 0001487   3.8234 345.9269  1.00271480 17721
FENGYUN 4B              
1 48808U 21047A   26063.75878159 -.00000340  00000+0  00000+0 0  9995
2 48808   0.1928  76.9826 0007979 295.2034 168.0514  1.00276646 17527
SXM-8                   
1 48838U 21049A   26063.30044841 -.00000217  00000+0  00000+0 0  9997
2 48838   0.0269  58.6722 0004370 346.3267 140.0540  1.00273408 17541
TIANLIAN 1-05           
1 49011U 21063A   26064.22993713  .00000100  00000+0  00000+0 0  9990
2 49011   1.3255  81.5719 0004547 228.8411 312.0744  1.00272004 17038
